QIANFAN-9               
1 60387U 24140J   25318.83619909  .00000102  00000+0  13969-3 0  9992
2 60387  88.9738 302.2278 0014351 280.6802  79.2733 13.50976793 63564
QIANFAN-10              
1 60388U 24140K   25318.84038992  .00000095  00000+0  12814-3 0  9990
2 60388  88.9747 301.5717 0012738 254.7952 105.1791 13.50977652 63692
QIANFAN-11              
1 60389U 24140L   25318.80334524  .00000101  00000+0  13761-3 0  9997
2 60389  88.9673 302.1837 0012374 280.7413  79.2345 13.50973839 63349
QIANFAN-12              
1 60390U 24140M   25318.82385949  .00000091  00000+0  12241-3 0  9998
2 60390  88.9716 302.2128 0011314 290.5314  69.4622 13.50974407 63470
QIANFAN-13              
1 60391U 24140N   25318.86913257  .00000097  00000+0  13212-3 0  9997
2 60391  88.9728 302.3046 0011182 293.5059  66.4917 13.50974860 63507
QIANFAN-14              
1 60392U 24140P   25318.81965196  .00000080  00000+0  10601-3 0  9993
2 60392  88.9707 302.2133 0014862 292.4593  67.4984 13.50974694 63500
QIANFAN-15              
1 60393U 24140Q   25318.82791036  .00000093  00000+0  12551-3 0  9995
2 60393  88.9731 302.1623 0010480 277.6161  82.3800 13.50973174 63492
QIANFAN-16              
1 60394U 24140R   25318.81572046  .00000080  00000+0  10520-3 0  9993
2 60394  88.9734 302.2829 0012871 297.4588  62.5254 13.50973616 63409
